[{"OBJECT_NAME":"SHIYAN-6 01 (SY-6 01)","OBJECT_ID":"2018-094B","EPOCH":"2026-03-09T23:04:36.967872","MEAN_MOTION":15.28649156,"ECCENTRICITY":0.00144834,"INCLINATION":97.3669,"RA_OF_ASC_NODE":84.0964,"ARG_OF_PERICENTER":135.6758,"MEAN_ANOMALY":224.5644,"EPHEMERIS_TYPE":0,"CLASSIFICATION_TYPE":"U","NORAD_CAT_ID":43711,"ELEMENT_SET_NO":999,"REV_AT_EPOCH":40632,"BSTAR":0.00024768444,"MEAN_MOTION_DOT":6.847e-5,"MEAN_MOTION_DDOT":0},{"OBJECT_NAME":"STARLINK-36492","OBJECT_ID":"2026-002AD","EPOCH":"2026-03-09T10:07:13.094112","MEAN_MOTION":15.27577988,"ECCENTRICITY":5.377e-5,"INCLINATION":43.0032,"RA_OF_ASC_NODE":327.1487,"ARG_OF_PERICENTER":0.4165,"MEAN_ANOMALY":359.6687,"EPHEMERIS_TYPE":0,"CLASSIFICATION_TYPE":"U","NORAD_CAT_ID":67332,"ELEMENT_SET_NO":999,"REV_AT_EPOCH":1119,"BSTAR":0.00089136439,"MEAN_MOTION_DOT":0.00024346,"MEAN_MOTION_DDOT":0}]
